NORAD_CAT_ID,OBJECT_NAME,OBJECT_TYPE,EPOCH,MEAN_MOTION,ECCENTRICITY,INCLINATION,RA_OF_ASC_NODE,ARG_OF_PERICENTER,MEAN_ANOMALY,BSTAR,MEAN_MOTION_DOT,MEAN_MOTION_DDOT,TLE_LINE0,TLE_LINE1,TLE_LINE2,SEMIMAJOR_AXIS,PERIOD,APOGEE,PERIGEE,DECAYED
53914.0,STARLINK-5040,PAYLOAD,2024-01-14 22:19:44,15.08845487,0.0001384,53.2171,236.9934,100.9163,259.1985,0.00018928,2.726e-05,0.0,0 STARLINK-5040,1 53914U 22119AE  24014.93037108  .00002726  00000-0  18928-3 0  9997,2 53914  53.2171 236.9934 0001384 100.9163 259.1985 15.08845487 73352,6917.864,95.437,540.686,538.771,0.0
53914.0,STARLINK-5040,PAYLOAD,2024-01-14 23:55:07,15.08846295,0.0001385,53.2159,236.6942,98.2036,261.9113,0.00022461,3.289e-05,0.0,0 STARLINK-5040,1 53914U 22119AE  24014.99661177  .00003289  00000-0  22461-3 0  9994,2 53914  53.2159 236.6942 0001385  98.2036 261.9113 15.08846295 73366,6917.861,95.437,540.684,538.768,0.0
53914.0,STARLINK-5040,PAYLOAD,2024-01-15 18:59:45,15.08842343,0.0001321,53.2161,233.1246,101.7171,258.3969,7.2776e-05,8.71e-06,0.0,0 STARLINK-5040,1 53914U 22119AE  24015.79149399  .00000871  00000-0  72776-4 0  9999,2 53914  53.2161 233.1246 0001321 101.7171 258.3969 15.08842343 73064,6917.873,95.437,540.652,538.824,0.0
53914.0,STARLINK-5040,PAYLOAD,2024-01-15 20:35:08,15.08841185,0.0001464,53.2162,232.8304,92.4901,267.6258,5.5556e-05,5.96e-06,0.0,0 STARLINK-5040,1 53914U 22119AE  24015.85773568  .00000596  00000-0  55556-4 0  9998,2 53914  53.2162 232.8304 0001464  92.4901 267.6258 15.08841185 73495,6917.877,95.437,540.755,538.729,0.0
53914.0,STARLINK-5040,PAYLOAD,2024-01-16 14:04:22,15.08841595,0.0001338,53.2159,229.5566,105.1416,254.9724,-3.0182e-05,-7.68e-06,0.0,0 STARLINK-5040,1 53914U 22119AE  24016.58637464 -.00000768  00000-0 -30182-4 0  9994,2 53914  53.2159 229.5566 0001338 105.1416 254.9724 15.08841595 73602,6917.876,95.437,540.666,538.815,0.0
53914.0,STARLINK-5040,PAYLOAD,2024-01-16 20:25:55,15.08846317,0.0001309,53.2165,228.3684,98.7739,261.3401,1.1259e-05,-1.09e-06,0.0,0 STARLINK-5040,1 53914U 22119AE  24016.85133338 -.00000109  00000-0  11259-4 0  9997,2 53914  53.2165 228.3684 0001309  98.7739 261.3401 15.08846317 73645,6917.861,95.437,540.632,538.821,0.0
53914.0,STARLINK-5040,PAYLOAD,2024-01-16 23:36:41,15.08846802,0.0001266,53.2164,227.773,107.2325,252.8806,3.9257e-05,3.37e-06,0.0,0 STARLINK-5040,1 53914U 22119AE  24016.98381131  .00000337  00000-0  39257-4 0  9997,2 53914  53.2164 227.7730 0001266 107.2325 252.8806 15.08846802 73247,6917.86,95.437,540.6,538.849,0.0
53914.0,STARLINK-5040,PAYLOAD,2024-01-17 20:16:42,15.08843451,0.0001193,53.216,223.9075,82.5833,277.5294,4.5882e-05,4.43e-06,0.0,0 STARLINK-5040,1 53914U 22119AE  24017.84493454  .00000443  00000-0  45882-4 0  9994,2 53914  53.2160 223.9075 0001193  82.5833 277.5294 15.08843451 73377,6917.87,95.437,540.56,538.91,0.0
53914.0,STARLINK-5040,PAYLOAD,2024-01-18 13:45:57,15.08839459,0.0001483,53.217,220.6368,98.6363,261.4797,4.9926e-05,5.07e-06,0.0,0 STARLINK-5040,1 53914U 22119AE  24018.57357748  .00000507  00000-0  49926-4 0  9994,2 53914  53.2170 220.6368 0001483  98.6363 261.4797 15.08839459 73907,6917.882,95.438,540.773,538.721,0.0
53914.0,STARLINK-5040,PAYLOAD,2024-01-18 18:32:06,15.08839996,0.000149,53.2171,219.7448,99.6478,260.4682,4.9087e-05,4.93e-06,0.0,0 STARLINK-5040,1 53914U 22119AE  24018.77229705  .00000493  00000-0  49087-4 0  9999,2 53914  53.2171 219.7448 0001490  99.6478 260.4682 15.08839996 73933,6917.88,95.438,540.776,538.715,0.0
53914.0,STARLINK-5040,PAYLOAD,2024-01-18 23:18:15,15.08839768,0.0001467,53.2169,218.8527,97.5333,262.5826,4.2435e-05,3.87e-06,0.0,0 STARLINK-5040,1 53914U 22119AE  24018.97101726  .00000387  00000-0  42435-4 0  9995,2 53914  53.2169 218.8527 0001467  97.5333 262.5826 15.08839768 73546,6917.881,95.438,540.761,538.731,0.0
53914.0,STARLINK-5040,PAYLOAD,2024-01-19 19:58:16,15.08844092,0.0001469,53.2173,214.9875,94.4553,265.6607,0.00011233,1.5e-05,0.0,0 STARLINK-5040,1 53914U 22119AE  24019.83213260  .00001500  00000-0  11233-3 0  9997,2 53914  53.2173 214.9875 0001469  94.4553 265.6607 15.08844092 74094,6917.868,95.437,540.749,538.717,0.0
53914.0,STARLINK-5040,PAYLOAD,2024-01-20 18:13:40,15.08835556,0.0001232,53.2159,210.8214,94.4184,265.6949,2.8749e-05,1.7e-06,0.0,0 STARLINK-5040,1 53914U 22119AE  24020.75950197  .00000170  00000-0  28749-4 0  9990,2 53914  53.2159 210.8214 0001232  94.4184 265.6949 15.08835556 73811,6917.894,95.438,540.611,538.907,0.0
53914.0,STARLINK-5040,PAYLOAD,2024-01-20 22:59:50,15.08832962,0.0001237,53.216,209.9305,96.3166,263.7967,1.0789e-05,-1.16e-06,0.0,0 STARLINK-5040,1 53914U 22119AE  24020.95822462 -.00000116  00000-0  10789-4 0  9991,2 53914  53.2160 209.9305 0001237  96.3166 263.7967 15.08832962 74266,6917.902,95.438,540.623,538.911,0.0
53914.0,STARLINK-5040,PAYLOAD,2024-01-21 19:39:51,15.08826575,0.0001385,53.2159,206.0661,99.9305,260.1843,0.00030088,4.502e-05,0.0,0 STARLINK-5040,1 53914U 22119AE  24021.81934189  .00004502  00000-0  30088-3 0  9992,2 53914  53.2159 206.0661 0001385  99.9305 260.1843 15.08826575 73979,6917.921,95.438,540.745,538.828,0.0
53914.0,STARLINK-5040,PAYLOAD,2024-01-21 21:15:13,15.08855761,0.0001227,53.2161,205.768,93.315,266.7982,-9.885e-05,-1.861e-05,0.0,0 STARLINK-5040,1 53914U 22119AE  24021.88557384 -.00001861  00000-0 -98850-4 0  9996,2 53914  53.2161 205.7680 0001227  93.3150 266.7982 15.08855761 74404,6917.832,95.437,540.546,538.848,0.0
53914.0,STARLINK-5040,PAYLOAD,2024-01-22 11:33:42,15.08838493,0.0001162,53.2161,203.0924,83.6606,276.4518,0.00013101,1.798e-05,0.0,0 STARLINK-5040,1 53914U 22119AE  24022.48174045  .00001798  00000-0  13101-3 0  9994,2 53914  53.2161 203.0924 0001162  83.6606 276.4518 15.08838493 74071,6917.885,95.438,540.554,538.946,0.0
53914.0,STARLINK-5040,PAYLOAD,2024-01-22 19:30:38,15.08839688,0.0001159,53.2162,201.6051,82.8795,277.2329,0.00013803,1.91e-05,0.0,0 STARLINK-5040,1 53914U 22119AE  24022.81294076  .00001910  00000-0  13803-3 0  9993,2 53914  53.2162 201.6051 0001159  82.8795 277.2329 15.08839688 74541,6917.881,95.438,540.548,538.945,0.0
53914.0,STARLINK-5040,PAYLOAD,2024-01-23 16:10:38,15.08842371,0.0001186,53.2162,197.739,81.9714,278.1413,6.8027e-05,7.95e-06,0.0,0 STARLINK-5040,1 53914U 22119AE  24023.67406163  .00000795  00000-0  68027-4 0  9999,2 53914  53.2162 197.7390 0001186  81.9714 278.1413 15.08842371 74258,6917.873,95.437,540.559,538.918,0.0
53914.0,STARLINK-5040,PAYLOAD,2024-01-23 17:46:01,15.08842266,0.0001219,53.2162,197.4416,80.1309,279.982,6.3554e-05,7.24e-06,0.0,0 STARLINK-5040,1 53914U 22119AE  24023.74030091  .00000724  00000-0  63554-4 0  9992,2 53914  53.2162 197.4416 0001219  80.1309 279.9820 15.08842266 74683,6917.873,95.437,540.582,538.895,0.0
53914.0,STARLINK-5040,PAYLOAD,2024-01-24 14:26:02,15.08844331,0.0001292,53.2162,193.5761,74.0088,286.1046,9.2099e-05,1.178e-05,0.0,0 STARLINK-5040,1 53914U 22119AE  24024.60141938  .00001178  00000-0  92099-4 0  9991,2 53914  53.2162 193.5761 0001292  74.0088 286.1046 15.08844331 74810,6917.867,95.437,540.626,538.838,0.0
53914.0,STARLINK-5040,PAYLOAD,2024-01-24 17:36:48,15.08845153,0.0001322,53.2162,192.9814,72.9028,287.2109,9.4585e-05,1.218e-05,0.0,0 STARLINK-5040,1 53914U 22119AE  24024.73389852  .00001218  00000-0  94585-4 0  9991,2 53914  53.2162 192.9814 0001322  72.9028 287.2109 15.08845153 74418,6917.865,95.437,540.644,538.815,0.0
53914.0,STARLINK-5040,PAYLOAD,2024-01-25 14:16:49,15.08839254,0.0001386,53.2174,189.1116,97.6716,262.4433,4.603e-05,4.45e-06,0.0,0 STARLINK-5040,1 53914U 22119AE  24025.59502193  .00000445  00000-0  46030-4 0  9994,2 53914  53.2174 189.1116 0001386  97.6716 262.4433 15.08839254 74962,6917.883,95.438,540.706,538.789,0.0
53914.0,STARLINK-5040,PAYLOAD,2024-01-25 15:52:12,15.08839259,0.0001371,53.2174,188.8121,99.9578,260.1569,4.2398e-05,3.87e-06,0.0,0 STARLINK-5040,1 53914U 22119AE  24025.66126150  .00000387  00000-0  42398-4 0  9995,2 53914  53.2174 188.8121 0001371  99.9578 260.1569 15.08839259 74554,6917.883,95.438,540.696,538.799,0.0
53914.0,STARLINK-5040,PAYLOAD,2024-01-26 14:07:36,15.08840314,0.0001582,53.2181,184.6509,115.1678,244.9479,6.9691e-05,8.21e-06,0.0,0 STARLINK-5040,1 53914U 22119AE  24026.58861975  .00000821  00000-0  69691-4 0  9996,2 53914  53.2181 184.6509 0001582 115.1678 244.9479 15.08840314 75119,6917.879,95.438,540.839,538.65,0.0
53914.0,STARLINK-5040,PAYLOAD,2024-01-26 17:18:22,15.08843058,0.0001482,53.2179,184.0588,105.2693,254.8463,8.8169e-05,1.116e-05,0.0,0 STARLINK-5040,1 53914U 22119AE  24026.72109825  .00001116  00000-0  88169-4 0  9990,2 53914  53.2179 184.0588 0001482 105.2693 254.8463 15.08843058 74719,6917.871,95.437,540.761,538.711,0.0
53914.0,STARLINK-5040,PAYLOAD,2024-01-27 13:58:24,15.08822992,0.0001889,53.2182,180.1962,122.5933,237.5242,0.00022996,3.372e-05,0.0,0 STARLINK-5040,1 53914U 22119AE  24027.58222698  .00003372  00000-0  22996-3 0  9990,2 53914  53.2182 180.1962 0001889 122.5933 237.5242 15.08822992 75264,6917.932,95.439,541.104,538.491,0.0
53914.0,STARLINK-5040,PAYLOAD,2024-01-27 15:33:47,15.08838614,0.0001559,53.218,179.8988,114.7614,245.354,2.5104e-05,1.12e-06,0.0,0 STARLINK-5040,1 53914U 22119AE  24027.64846445  .00000112  00000-0  25104-4 0  9993,2 53914  53.2180 179.8988 0001559 114.7614 245.3540 15.08838614 74858,6917.885,95.438,540.828,538.671,0.0
53914.0,STARLINK-5040,PAYLOAD,2024-01-28 13:49:11,15.08835001,0.0001568,53.2181,175.7351,108.9824,251.1339,1.7895e-05,-3e-08,0.0,0 STARLINK-5040,1 53914U 22119AE  24028.57582907 -.00000003  00000-0  17895-4 0  9994,2 53914  53.2181 175.7351 0001568 108.9824 251.1339 15.08835001 75417,6917.896,95.438,540.845,538.676,0.0
53914.0,STARLINK-5040,PAYLOAD,2024-01-28 16:59:57,15.08835384,0.0001448,53.2178,175.1405,99.8405,260.2751,1.2227e-05,-9.3e-07,0.0,0 STARLINK-5040,1 53914U 22119AE  24028.70830968 -.00000093  00000-0  12227-4 0  9995,2 53914  53.2178 175.1405 0001448  99.8405 260.2751 15.08835384 75016,6917.894,95.438,540.761,538.758,0.0
